NORAD_CAT_ID,OBJECT_NAME,OBJECT_TYPE,EPOCH,MEAN_MOTION,ECCENTRICITY,INCLINATION,RA_OF_ASC_NODE,ARG_OF_PERICENTER,MEAN_ANOMALY,BSTAR,MEAN_MOTION_DOT,MEAN_MOTION_DDOT,TLE_LINE0,TLE_LINE1,TLE_LINE2,SEMIMAJOR_AXIS,PERIOD,APOGEE,PERIGEE,DECAYED
55413.0,STARLINK-5060,PAYLOAD,2023-12-10 10:54:46,14.98330376,0.0002909,69.9992,352.3721,274.0468,86.0358,4.7185e-06,-3.7e-07,0.0,0 STARLINK-5060,1 55413U 23014Y   23344.45470830 -.00000037  00000-0  47185-5 0  9996,2 55413  69.9992 352.3721 0002909 274.0468  86.0358 14.98330376 47766,6950.192,96.107,574.079,570.035,0.0
55413.0,STARLINK-5060,PAYLOAD,2023-12-11 09:20:39,14.98331613,0.0002896,69.9992,350.0148,275.7892,84.2937,-5.6748e-06,-1.61e-06,0.0,0 STARLINK-5060,1 55413U 23014Y   23345.38934691 -.00000161  00000-0 -56748-5 0  9993,2 55413  69.9992 350.0148 0002896 275.7892  84.2937 14.98331613 48846,6950.188,96.107,574.066,570.04,0.0
55413.0,STARLINK-5060,PAYLOAD,2023-12-12 02:58:08,14.98330283,0.0002858,69.9991,348.1632,270.3236,89.7596,1.0732e-05,3.5e-07,0.0,0 STARLINK-5060,1 55413U 23014Y   23346.12370606  .00000035  00000-0  10732-4 0  9996,2 55413  69.9991 348.1632 0002858 270.3236  89.7596 14.98330283 48014,6950.192,96.107,574.043,570.071,0.0
55413.0,STARLINK-5060,PAYLOAD,2023-12-12 09:22:40,14.98329832,0.0002926,69.9994,347.4904,269.8698,90.2126,2.2579e-05,1.76e-06,0.0,0 STARLINK-5060,1 55413U 23014Y   23346.39074558  .00000176  00000-0  22579-4 0  9990,2 55413  69.9994 347.4904 0002926 269.8698  90.2126 14.98329832 48993,6950.193,96.107,574.092,570.025,0.0
55413.0,STARLINK-5060,PAYLOAD,2023-12-13 03:00:09,14.98329721,0.0002767,69.9995,345.6388,265.5125,94.5718,6.6386e-06,-1.4e-07,0.0,0 STARLINK-5060,1 55413U 23014Y   23347.12510611 -.00000014  00000-0  66386-5 0  9994,2 55413  69.9995 345.6388 0002767 265.5125  94.5718 14.98329721 48161,6950.194,96.107,573.982,570.136,0.0
55413.0,STARLINK-5060,PAYLOAD,2023-12-13 09:24:41,14.98328916,0.0002782,69.9995,344.9655,265.8695,94.2146,-3.4585e-06,-1.34e-06,0.0,0 STARLINK-5060,1 55413U 23014Y   23347.39214689 -.00000134  00000-0 -34585-5 0  9999,2 55413  69.9995 344.9655 0002782 265.8695  94.2146 14.98328916 49148,6950.196,96.107,573.995,570.128,0.0
55413.0,STARLINK-5060,PAYLOAD,2023-12-14 04:38:18,14.98326618,0.0002729,69.9997,342.9458,262.7705,97.3143,-1.7342e-05,-3e-06,0.0,0 STARLINK-5060,1 55413U 23014Y   23348.19326939 -.00000300  00000-0 -17342-4 0  9996,2 55413  69.9997 342.9458 0002729 262.7705  97.3143 14.98326618 48325,6950.203,96.107,573.965,570.172,0.0
55413.0,STARLINK-5060,PAYLOAD,2023-12-14 09:26:42,14.98327111,0.0002725,69.9997,342.4408,263.4256,96.6592,-1.0193e-05,-2.15e-06,0.0,0 STARLINK-5060,1 55413U 23014Y   23348.39354935 -.00000215  00000-0 -10193-4 0  9997,2 55413  69.9997 342.4408 0002725 263.4256  96.6592 14.98327111 49296,6950.202,96.107,573.961,570.173,0.0
55413.0,STARLINK-5060,PAYLOAD,2023-12-15 04:40:18,14.9833299,0.0002841,69.9994,340.4201,267.8866,92.1968,6.0123e-05,6.25e-06,0.0,0 STARLINK-5060,1 55413U 23014Y   23349.19466330  .00000625  00000-0  60123-4 0  9990,2 55413  69.9994 340.4201 0002841 267.8866  92.1968 14.98332990 48474,6950.184,96.107,574.023,570.074,0.0
55413.0,STARLINK-5060,PAYLOAD,2023-12-15 09:28:42,14.98334711,0.00028,69.9995,339.9151,267.0112,93.0726,7.9155e-05,8.52e-06,0.0,0 STARLINK-5060,1 55413U 23014Y   23349.39494122  .00000852  00000-0  79155-4 0  9999,2 55413  69.9995 339.9151 0002800 267.0112  93.0726 14.98334711 49446,6950.178,96.107,573.989,570.097,0.0
55413.0,STARLINK-5060,PAYLOAD,2023-12-16 03:06:12,14.98327128,0.0002684,69.9997,338.0641,262.1837,97.9017,1.899e-05,1.34e-06,0.0,0 STARLINK-5060,1 55413U 23014Y   23350.12930732  .00000134  00000-0  18990-4 0  9997,2 55413  69.9997 338.0641 0002684 262.1837  97.9017 14.98327128 48610,6950.202,96.107,573.932,570.201,0.0
55413.0,STARLINK-5060,PAYLOAD,2023-12-16 09:30:44,14.98326164,0.000273,69.9998,337.3905,265.2095,94.8753,3.5561e-06,-5.1e-07,0.0,0 STARLINK-5060,1 55413U 23014Y   23350.39634905 -.00000051  00000-0  35561-5 0  9992,2 55413  69.9998 337.3905 0002730 265.2095  94.8753 14.98326164 49598,6950.205,96.107,573.967,570.172,0.0
55413.0,STARLINK-5060,PAYLOAD,2023-12-17 03:08:12,14.98333739,0.0002765,69.9997,335.5386,267.6968,92.3875,-2.3008e-05,-3.68e-06,0.0,0 STARLINK-5060,1 55413U 23014Y   23351.13070451 -.00000368  00000-0 -23008-4 0  9999,2 55413  69.9997 335.5386 0002765 267.6968  92.3875 14.98333739 48765,6950.181,96.107,573.968,570.125,0.0
55413.0,STARLINK-5060,PAYLOAD,2023-12-17 09:32:43,14.98394009,0.0002405,69.9997,334.8653,276.9043,83.1842,-0.001054,-0.00012667,0.0,0 STARLINK-5060,1 55413U 23014Y   23351.39772956 -.00012667  00000-0 -10540-2 0  9996,2 55413  69.9997 334.8653 0002405 276.9043  83.1842 14.98394009 48806,6949.995,96.103,573.531,570.188,0.0
55413.0,STARLINK-5060,PAYLOAD,2023-12-18 03:10:13,14.9833291,0.0002905,69.9996,333.0135,270.0358,90.0468,7.6253e-05,8.17e-06,0.0,0 STARLINK-5060,1 55413U 23014Y   23352.13210047  .00000817  00000-0  76253-4 0  9994,2 55413  69.9996 333.0135 0002905 270.0358  90.0468 14.98332910 48916,6950.184,96.107,574.068,570.03,0.0
55413.0,STARLINK-5060,PAYLOAD,2023-12-18 07:58:37,14.98334705,0.0002684,70.0,332.5088,265.4512,94.634,9.5083e-05,1.042e-05,0.0,0 STARLINK-5060,1 55413U 23014Y   23352.33237808  .00001042  00000-0  95083-4 0  9993,2 55413  70.0000 332.5088 0002684 265.4512  94.6340 14.98334705 49880,6950.178,96.107,573.909,570.178,0.0
55413.0,STARLINK-5060,PAYLOAD,2023-12-19 03:12:15,14.98325408,0.0002626,70.0014,330.4918,242.3825,117.7068,-2.7059e-05,-4.16e-06,0.0,0 STARLINK-5060,1 55413U 23014Y   23353.13350724 -.00000416  00000-0 -27059-4 0  9999,2 55413  70.0014 330.4918 0002626 242.3825 117.7068 14.98325408 49065,6950.207,96.107,573.897,570.247,0.0
55413.0,STARLINK-5060,PAYLOAD,2023-12-19 08:00:39,14.98324132,0.0002652,70.0007,329.9854,247.9668,112.1209,-4.6383e-05,-6.46e-06,0.0,0 STARLINK-5060,1 55413U 23014Y   23353.33378927 -.00000646  00000-0 -46383-4 0  9992,2 55413  70.0007 329.9854 0002652 247.9668 112.1209 14.98324132 50032,6950.211,96.107,573.919,570.233,0.0
55413.0,STARLINK-5060,PAYLOAD,2023-12-20 03:14:15,14.98330419,0.0002728,70.0006,327.9658,250.0467,110.0398,-4.0646e-05,-5.78e-06,0.0,0 STARLINK-5060,1 55413U 23014Y   23354.13490519 -.00000578  00000-0 -40646-4 0  9993,2 55413  70.0006 327.9658 0002728 250.0467 110.0398 14.98330419 49216,6950.192,96.107,573.953,570.161,0.0
55413.0,STARLINK-5060,PAYLOAD,2023-12-20 08:02:40,14.98330314,0.0002688,70.0007,327.4603,244.9531,115.1349,-5.0238e-05,-6.92e-06,0.0,0 STARLINK-5060,1 55413U 23014Y   23354.33518546 -.00000692  00000-0 -50238-4 0  9991,2 55413  70.0007 327.4603 0002688 244.9531 115.1349 14.98330314 50185,6950.192,96.107,573.925,570.189,0.0
55413.0,STARLINK-5060,PAYLOAD,2023-12-21 03:16:16,14.98329636,0.0002856,70.0002,325.44,252.9978,107.0868,9.7582e-05,1.072e-05,0.0,0 STARLINK-5060,1 55413U 23014Y   23355.13630231  .00001072  00000-0  97582-4 0  9990,2 55413  70.0002 325.4400 0002856 252.9978 107.0868 14.98329636 49363,6950.194,96.107,574.044,570.074,0.0
55413.0,STARLINK-5060,PAYLOAD,2023-12-21 08:04:40,14.98331473,0.0002831,70.0002,324.9348,252.7586,107.3263,0.00011541,1.284e-05,0.0,0 STARLINK-5060,1 55413U 23014Y   23355.33658073  .00001284  00000-0  11541-3 0  9991,2 55413  70.0002 324.9348 0002831 252.7586 107.3263 14.98331473 50337,6950.188,96.107,574.021,570.086,0.0
55413.0,STARLINK-5060,PAYLOAD,2023-12-21 22:29:55,14.98306404,0.0002723,70.0051,323.4276,211.2339,148.8658,-7.5048e-05,-9.88e-06,0.0,0 STARLINK-5060,1 55413U 23014Y   23355.93744658 -.00000988  00000-0 -75048-4 0  9997,2 55413  70.0051 323.4276 0002723 211.2339 148.8658 14.98306404 50425,6950.266,96.109,574.023,570.238,0.0
55413.0,STARLINK-5060,PAYLOAD,2023-12-22 03:18:20,14.9830698,0.0002786,70.0002,322.9152,252.5649,107.5205,-0.00019744,-2.447e-05,0.0,0 STARLINK-5060,1 55413U 23014Y   23356.13773261 -.00002447  00000-0 -19744-3 0  9994,2 55413  70.0002 322.9152 0002786 252.5649 107.5205 14.98306980 49516,6950.264,96.108,574.065,570.193,0.0
55413.0,STARLINK-5060,PAYLOAD,2023-12-22 08:06:44,14.983071,0.0002775,70.0,322.41,253.2987,106.7868,-0.00018119,-2.253e-05,0.0,0 STARLINK-5060,1 55413U 23014Y   23356.33801508 -.00002253  00000-0 -18119-3 0  9992,2 55413  70.0000 322.4100 0002775 253.2987 106.7868 14.98307100 50482,6950.264,96.108,574.057,570.2,0.0
55413.0,STARLINK-5060,PAYLOAD,2023-12-22 22:31:55,14.98328956,0.0002706,70.0014,320.8944,266.4835,93.6015,5.4461e-05,5.57e-06,0.0,0 STARLINK-5060,1 55413U 23014Y   23356.93883768  .00000557  00000-0  54461-4 0  9990,2 55413  70.0014 320.8944 0002706 266.4835  93.6015 14.98328956 50577,6950.196,96.107,573.942,570.18,0.0
55413.0,STARLINK-5060,PAYLOAD,2023-12-23 03:20:19,14.98336687,0.0002068,70.0022,320.3906,237.4356,122.6603,0.00016093,1.828e-05,0.0,0 STARLINK-5060,1 55413U 23014Y   23357.13910963  .00001828  00000-0  16093-3 0  9991,2 55413  70.0022 320.3906 0002068 237.4356 122.6603 14.98336687 49660,6950.172,96.107,573.475,570.6,0.0
55413.0,STARLINK-5060,PAYLOAD,2023-12-23 08:08:43,14.98336142,0.0002015,70.0017,319.8826,252.2831,107.8108,0.00018577,2.125e-05,0.0,0 STARLINK-5060,1 55413U 23014Y   23357.33939011  .00002125  00000-0  18577-3 0  9998,2 55413  70.0017 319.8826 0002015 252.2831 107.8108 14.98336142 50633,6950.174,96.107,573.439,570.638,0.0
55413.0,STARLINK-5060,PAYLOAD,2023-12-23 22:33:55,14.98330318,0.0002328,70.0011,318.3692,243.0721,117.02,0.00037648,4.402e-05,0.0,0 STARLINK-5060,1 55413U 23014Y   23357.94022659  .00004402  00000-0  37648-3 0  9996,2 55413  70.0011 318.3692 0002328 243.0721 117.0200 14.98330318 50720,6950.192,96.107,573.675,570.439,0.0
55413.0,STARLINK-5060,PAYLOAD,2023-12-24 03:22:19,14.98330071,0.0002396,70.001,317.8644,242.0072,118.0845,0.00035559,4.152e-05,0.0,0 STARLINK-5060,1 55413U 23014Y   23358.14050707  .00004152  00000-0  35559-3 0  9995,2 55413  70.0010 317.8644 0002396 242.0072 118.0845 14.98330071 49813,6950.193,96.107,573.723,570.392,0.0
